GPS BIIR-2  (PRN 13)    
1 24876U 97035A   17257.31460161  .00000030  00000-0  00000-0 0  9998
2 24876  55.5349 223.6041 0032669 100.9888 259.3624  2.00565447147813
GPS BIIR-3  (PRN 11)    
1 25933U 99055A   17257.63642919 -.00000010  00000-0  00000-0 0  9994
2 25933  51.6958  73.7220 0168377  97.0353  64.0216  2.00556379131447
GPS BIIR-4  (PRN 20)    
1 26360U 00025A   17257.49174861 -.00000032  00000-0  00000+0 0  9991
2 26360  53.1307 151.1660 0043068  95.5739  63.9772  2.00555645127126
GPS BIIR-5  (PRN 28)    
1 26407U 00040A   17257.61750483 -.00000079  00000-0  00000-0 0  9996
2 26407  56.6020 341.6634 0200886 270.3538 262.7997  2.00565916125812
GPS BIIR-6  (PRN 14)    
1 26605U 00071A   17257.58198326  .00000022  00000-0  00000-0 0  9995
2 26605  55.1066 221.2908 0095655 248.8328 166.7513  2.00561038123418
GPS BIIR-7  (PRN 18)    
1 26690U 01004A   17257.62915576 -.00000034  00000-0  00000-0 0  9999
2 26690  53.0514 154.0930 0183488 258.0527 303.6299  2.00568094121815
GPS BIIR-8  (PRN 16)    
1 27663U 03005A   17257.32141362 -.00000078  00000-0  00000+0 0  9991
2 27663  56.6699 341.4191 0091703  25.1331  49.1018  2.00553823107161
GPS BIIR-9  (PRN 21)    
1 27704U 03010A   17257.56410181  .00000006  00000-0  00000-0 0  9998
2 27704  53.9122  94.5107 0241663 265.9470 308.3328  2.00570969105972
GPS BIIR-10 (PRN 22)    
1 28129U 03058A   17257.00948849 -.00000030  00000-0  00000+0 0  9995
2 28129  52.9415 154.0993 0074990 264.0529  95.1430  2.00556364100653
GPS BIIR-11 (PRN 19)    
1 28190U 04009A   17256.49195355 -.00000035  00000-0  00000+0 0  9993
2 28190  56.0520  42.4256 0098731  60.4246 290.2407  2.00563194 98824
GPS BIIR-12 (PRN 23)    
1 28361U 04023A   17257.44694071  .00000015  00000-0  00000+0 0  9991
2 28361  54.0958 216.3182 0120435 222.0021   7.8989  2.00561969 96925
GPS BIIR-13 (PRN 02)    
1 28474U 04045A   17257.58288872  .00000007  00000-0  00000-0 0  9995
2 28474  54.2889  94.0163 0172476 248.1260  82.4328  2.00573993 94295
GPS BIIRM-1 (PRN 17)    
1 28874U 05038A   17257.44121146 -.00000043  00000-0  00000+0 0  9997
2 28874  56.2052  39.6626 0120750 254.5286  83.5113  2.00562549 87694
GPS BIIRM-2 (PRN 31)    
1 29486U 06042A   17257.60588192  .00000032  00000-0  00000-0 0  9997
2 29486  55.3438 278.7092 0085778 344.5500  29.9987  2.00551206 80306
GPS BIIRM-3 (PRN 12)    
1 29601U 06052A   17257.02789692 -.00000076  00000-0  00000+0 0  9999
2 29601  56.6435 340.3491 0063520  51.1849 309.4237  2.00558555 79310
GPS BIIRM-4 (PRN 15)    
1 32260U 07047A   17256.84684272  .00000017  00000-0  00000+0 0  9990
2 32260  53.2216 212.6122 0094603  33.3518 327.2215  2.00570239 72699
GPS BIIRM-5 (PRN 29)    
1 32384U 07062A   17256.17495477 -.00000036  00000-0  00000+0 0  9999
2 32384  56.2712  40.3002 0003689  27.7800 345.9966  2.00576051 71415
GPS BIIRM-6 (PRN 07)    
1 32711U 08012A   17257.25334888  .00000032  00000-0  00000+0 0  9992
2 32711  55.0736 278.0691 0111761 214.2215 145.0979  2.00557859 69617
GPS BIIRM-8 (PRN 05)    
1 35752U 09043A   17257.47349470 -.00000032  00000-0  00000+0 0  9993
2 35752  54.2634 155.8986 0050632  31.0861 150.7817  2.00577006 59207
GPS BIIF-1  (PRN 25)    
1 36585U 10022A   17256.54504420 -.00000072  00000-0  00000+0 0  9996
2 36585  55.9464 337.1239 0063822  45.9847 296.2772  2.00554151 53431
GPS BIIF-2  (PRN 01)    
1 37753U 11036A   17257.32218541  .00000010  00000-0  00000-0 0  9995
2 37753  55.4932  97.2193 0069076  33.9606 233.4210  2.00562791 45131
GPS BIIF-3  (PRN 24)    
1 38833U 12053A   17256.94139893  .00000033  00000-0  00000+0 0  9998
2 38833  54.1025 274.9111 0058027  24.7325 335.5860  2.00562870 36193
GPS BIIF-4  (PRN 27)    
1 39166U 13023A   17256.79422749 -.00000045  00000-0  00000-0 0  9999
2 39166  55.9100  36.6744 0048429  20.2262 339.9741  2.00564136 31735
GPS BIIF-5  (PRN 30)    
1 39533U 14008A   17257.29609440  .00000026  00000-0  00000+0 0  9999
2 39533  54.2540 280.2061 0030834 188.8009 171.1921  2.00568336 26098
GPS BIIF-6  (PRN 06)    
1 39741U 14026A   17257.57586261  .00000011  00000-0  00000-0 0  9991
2 39741  55.4795  96.7301 0007755 289.1281  70.8618  2.00555123 24405
GPS BIIF-7  (PRN 09)    
1 40105U 14045A   17257.16435884  .00000020  00000-0  00000+0 0  9996
2 40105  54.6201 216.2841 0005817 114.7623 245.2797  2.00551162 22821
GPS BIIF-8  (PRN 03)    
1 40294U 14068A   17257.53999019 -.00000032  00000-0  00000-0 0  9991
2 40294  55.0120 156.9457 0009056  10.6221 349.4434  2.00565027 21071
GPS BIIF-9  (PRN 26)    
1 40534U 15013A   17257.18004475 -.00000074  00000-0  00000+0 0  9998
2 40534  54.8977 336.1042 0019015 352.7035   7.3163  2.00552856 18112
GPS BIIF-10  (PRN 08)   
1 40730U 15033A   17257.33398532 -.00000050  00000-0  00000+0 0  9999
2 40730  55.4438  36.2840 0027436 320.0852  39.7221  2.00561983 15879
GPS BIIF-11  (PRN 10)   
1 41019U 15062A   17256.39123258 -.00000023  00000-0  00000+0 0  9998
2 41019  55.0201 156.7832 0028234 201.4074 158.5239  2.00563642 13677
GPS BIIF-12  (PRN 32)   
1 41328U 16007A   17256.98132870  .00000024  00000-0  00000+0 0  9996
2 41328  54.8756 216.5056 0015656 220.7235 139.1416  2.00553054 11746
